actor_id,type,actor_id_type,new_actor_type,old_actor_type,actor,actor_detail,abbreviation,short_actor_name,country_based,iso3c,iso3n,gwn,gwc,cowc,cown,region,ucdp_id,in_ucdp,acled_name,acled_other,alternative_names,additional_info,hyperlink
0,CON,CON_0,Country/State,Country/State,Bosnia and Herzegovina,,BOS,BOS,Bosnia and Herzegovina,BIH,70.0,346.0,BOS,BOS,346.0,Europe,50.0,Government of Bosnia-Herzegovina,Government of Bosnia and Herzegovina (2018-),Government of Bosnia and Herzegovina (2018-),Bosnia-Herzegovina | BOSNIA AND HERZEGOVINA | Bosnia Herzegovina | Republic of Bosnia and Herzegovina | Bosnia | Bosniak | Bosnian Croats | Bosnian Serb Civilian | Federation Bosnia | Federation Bosnia Herzegovina | Federation Bosnia Herzegovina Drago BILANDZIJA | Federation Bosnia Herzegovina : A. IZETBEGOVIC | Republic Bosnia | Republic Bosnia - Herzegovina | Republic Bosnia Herzegovina | Republic Federation Bosnia Herzegovina ] | Republic Srpska | REPUBLIC SRPSKA Dr Radovan Karadzic | Republics Bosnia Herzegovina | Republika Srpska | REPUBLIKA SRPSKA | BIH | Republic of Bosnia and Herzegovina | Bosnia and Herzegovina | Government Republic Bosnia Herzegovina | Herzegovina | Croatian Republic Herzeg - Bosnia | Croatian Republic Herceg Bosnia Mate Boban,,
1,CON,CON_1,Country/State,Country/State,Croatia,,CRO,CRO,Croatia,HRV,191.0,344.0,CRO,CRO,344.0,Europe,48.0,Government of Croatia,Government of Croatia (2016-),Government of Croatia (2016-),Croatia | CROATIA | Croat | Croatia | Republic Croatia | Republic Croatia : | Republic Croatia DR | Croatia | Defence Government Republic Croatia | : Government Republic Croatia- | Office Government Republic Croatia Transitional Administration,,
2,CON,CON_2,Country/State,Country/State,Germany,,GMY,GMY,Germany,DEU,276.0,255.0,GMY,GMY,255.0,Europe,37.0,Government of Germany,Government of Germany (2021-),Government of Germany (2005-2021) | Government of Germany (2021-),Germany (Prussia) | GERMANY | Federal Republic Germany | Germany | GERMANY | Republic Germany | Federal Republic of Germany,,
3,CON,CON_3,Country/State,Country/State,United States,,USA,USA,United States of America,USA,840.0,2.0,USA,USA,2.0,Americas,3.0,Government of United States of America,Government of the United States (2021-),Government of the United States (2017-2021) | Government of the United States (2021-),United States of America | UNITED STATES | America | AMERICA | U.S. | U.S.A | United States | United States  Islamic Emirate | United States America | UNITED STATES AMERICA ANGOLA  ANDREEV SERGUEI VADIMOVICH  AMBASSADOR | United States Presidential Special Envoy Promotion Democracy | USA,,
4,CON,CON_4,Country/State,Country/State,Spain,,SPN,SPN,Spain,ESP,724.0,230.0,SPN,SPN,230.0,Europe,35.0,Government of Spain,Government of Spain (2020-),Government of Spain (2020-),Spain | SPAIN | Kingdom Spain | Spain | SPAIN,,
5,IGO,IGO_5,IGO,IGO,European Union,,EU,EU,,,,,,,,,,,,,EU || The European Union || European Union | EU | EU Admininstrator | EU Monitoring Mission | EU Special Representative | European Union | EUROPEAN UNION | European Union - MAMADOU KANE | European Union Canada Mediator | European Union Delegation European Commission | European Union League Arab States | European Union Representative | European Union Co - Chair | European Union External Action Service | European Union Foreign Affairs | European Union Foreign Affairs Security | European Union High Representative | European Union High Representative Foreign Affairs & Security | European Union Special Negotiator | European Unions | European Union Special Negotiator | EU Presidency | EU Administrator | Local Presidency of the European Union | PMEZ | Union Europeene | EU Monitoring Mission | European External Action Service | EU facilitator | European Union High Representative of the Union for Foreign Affairs and Security Policy | European Union External Action Service | UE | EU Special Envoy  | Presidency of the EU | EU Special Representative for the Great Lakes Region | EU  |  The European Union  |  European Union | EU | European Union | European Union (EU) | European Union  - MAMADOU KANE | EU | European Union | European Union Canada Mediator | European Union League Arab States | European Union Representative,"European Union (EU) is an IGO, with affiliations to Regional Diplomatic IGOs (International Government Organizations). They are also referred to as EU || The European Union || European Union",
7,CON,CON_7,Country/State,Country/State,France,,FRN,FRN,France,FRA,250.0,220.0,FRN,FRN,220.0,Europe,33.0,Government of France,Government of France (2017-),Government of France (2017-) | Government of France (2017-) French Guiana | Government of France (2017-) Guadeloupe | Government of France (2017-) Martinique | Government of France (2017-) Saint-Barthelemy | Government of France (2017-) Saint-Martin,France | FRANCE | France | FRANCE | French Republic | French Republic Mr | French Republic : | French Republic Representative | Permanent Representatives France | Republic France | Republic of France | French Republic | French Republic  Mr,,
8,IGO,IGO_8,IGO,IGO,United Nations,UN Security Council,UNSC,UNSC,,,,,,,,,,,,,Un Security Council || United Nations Security Council || UNSC || U.N. Security Council | UN Security Council | UN Security Council Resolution | UN Security General | United Nations Security Council | UNSC | Un Security Council  |  United Nations Security Council  |  UNSC  |  U.N. Security Council,"UN Security Council (UNSC) is an IGO, with affiliations to Global Defense / Security IGOs (United Nations). They are also referred to as Un Security Council || United Nations Security Council || UNSC || U.N. Security Council",
9,CON,CON_9,Country/State,Country/State,Canada,,CAN,CAN,Canada,CAN,124.0,20.0,CAN,CAN,20.0,Americas,4.0,Government of Canada,Government of Canada (2015-),Government of Canada (2015-),Canada | CANADA | Canada | CANADA | Canada | Government Canada,,
10,CON,CON_10,Country/State,Country/State,Netherlands,,NTH,NTH,Netherlands,NLD,528.0,210.0,NTH,NTH,210.0,Europe,30.0,Government of Netherlands,Government of the Netherlands (2010-),Government of the Netherlands (2010-),Netherlands | NETHERLANDS | Kingdom Netherlands | Netherlands | NETHERLANDS | Nederland | Holland | PaÃ­ses Bajos | Royal Kingdom of the Netherlands | Kingdom of the Netherlands,,
11,CON,CON_11,Country/State,Country/State,Argentina,,ARG,ARG,Argentina,ARG,32.0,160.0,ARG,ARG,160.0,Americas,26.0,Government of Argentina,Government of Argentina (2019-),Government of Argentina (2015-2019) | Government of Argentina (2019-),Argentina | ARGENTINA | Argentina | Argentine Delegations | Argentine Republic | Argentine Republic ] | Republic Argentina  Fernando Henrique Cardoso,,
12,CON,CON_12,Country/State,Country/State,Malaysia,,MAL,MAL,Malaysia,MYS,458.0,820.0,MAL,MAL,820.0,Asia,152.0,Government of Malaysia,Government of Malaysia (2021-),Government of Malaysia (2020-2021) | Government of Malaysia (2021-),Malaysia | MALAYSIA | Malaysian Government,,
13,CON,CON_13,Country/State,Country/State,Namibia,,NAM,NAM,Namibia,NAM,516.0,565.0,NAM,NAM,565.0,Africa,103.0,Government of Namibia,,,Namibia | NAMIBIA | Republic Namibia | Nambia | Government Republic Namibia,,
14,CON,CON_14,Country/State,Country/State,Brazil,,BRA,BRA,Brazil,BRA,76.0,140.0,BRA,BRA,140.0,Americas,22.0,Government of Brazil,Government of Brazil (2019-),Government of Brazil (2016-2018) | Government of Brazil (2019-),Brazil | BRAZIL | Federative Republic Brazil | Federal Republic Brazil | Federative Republic Brazil | Federative Republic of Brazil  | BRAZIL,,
15,CON,CON_15,Country/State,Country/State,Bahrain,,BAH,BAH,Bahrain,BHR,48.0,692.0,BAH,BAH,692.0,Asia,126.0,Government of Bahrain,Government of Bahrain (1999-),Government of Bahrain (1999-),Bahrain | BAHRAIN | Bahrain | Bahrain Chamber Commerce Industry | Kingdom Bahrain,,
16,CON,CON_16,Country/State,Country/State,Gambia,,GAM,GAM,Gambia,GMB,270.0,420.0,GAM,GAM,420.0,Africa,71.0,Government of Gambia,Government of Gambia (2017-),Government of Gambia (1996-2017) | Government of Gambia (2017-),Gambia | GAMBIA | Gambia | GAMBIA | Gambia ] | Republic Gambia | Republic GAMBIA,,
17,CON,CON_17,Country/State,Country/State,Slovenia,,SLV,SLV,Slovenia,SVN,705.0,349.0,SLV,SLV,349.0,Europe,51.0,Government of Slovenia,Government of Slovenia (2018-),Government of Slovenia (2018-),Slovenia | SLOVENIA | Republic Slovenia | Republic Slovenia : | Slovenia,,
18,CON,CON_18,Country/State,Country/State,United Kingdom,,UKG,UKG,United Kingdom of Great Britain and Northern Ireland,GBR,826.0,200.0,UKG,UKG,200.0,Europe,28.0,Government of United Kingdom,Government of the United Kingdom (2010-),Government of the United Kingdom (2010-),United Kingdom | UNITED KINGDOM | Britain | Great Britain | UK | United Kingdom | UNITED KINGDOM | United Kingdom Great Britain | United Kingdom of Great Britain and Northern Ireland | United Kingdom | British Government | United Kingdom  Government | United Kingdom Government,,
19,CON,CON_19,Country/State,Country/State,China,,CHN,CHN,China,CHN,156.0,710.0,CHN,CHN,710.0,Asia,135.0,Government of China,Government of China (2012-),Government of China (2012-) | Government of China (2017-) Hong Kong Special Administrative Region | Government of China (2019-) Macau Special Administrative Region,China | CHINA | China | People's Republic China | People's Republic China  Plenipotentiary | People Republic China | China | Ministers Foreign Affairs China | People â€™s Republic China | Peoples Republic China | People â€™s Republic China  Plenipotentiary,,
20,CON,CON_20,Country/State,Country/State,Russia,,RUS,RUS,Russian Federation,RUS,643.0,365.0,RUS,RUS,365.0,Europe,57.0,Government of Russia (Soviet Union),Government of Russia (2000-),Government of Russia (2000-) | Government of Russia (2000-) Republic of Chechnya | Government of Russia (2000-) Republic of Ingushetia,Russia (Soviet Union) | RUSSIAN FEDERATION | Russia | Russian Federation | RUSSIAN FEDERATION | Russian Federation - B. YELTSIN | Russian Federation Plenipotentiary | Russian Federation ( Facilitator | Russian Federation : | Russian Federation : Mikhailov | Russian Federation A. Kozirev | Russian Federation A. Shokhin | RUSSIAN FEDERATION ANGOLA | Russian Federation Federal Assembly | Russian Federation P. S. Grachev | Russian Federation Representative Sergey Viktorovich Lavrov | USSR  | Council of Federation of Russia | Russian Ministry of Foreign Affairs | Union of Soviet Socialist Republics | Soviet Union | Russian | Russia | Governments Russian Federation | Ministry Defence Russian Federation : P | Russian Federation Government | Russian Government | Russian Ministry Foreign Affairs | Russian Federation :  Mikhailov | Russian Federation  Plenipotentiary,,
21,CON,CON_21,Country/State,Country/State,Gabon,,GAB,GAB,Gabon,GAB,266.0,481.0,GAB,GAB,481.0,Africa,85.0,Government of Gabon,Government of Gabon (2009-),Government of Gabon (2009-),Gabon | GABON | Republic Gabon | Republic Gabonese Republic | Socialist Union Gabon | Gabonese Republic  | Gabonese Republic | Gabonese Republic  Republic | Gabonese Republic,,
22,CON,CON_22,Country/State,Country/State,Yugoslavia,,YUG,YUG,,YUG,,345.0,YUG,,,,,,,,Yugoslavia | YUGOSLAVIA | Federal Republic Yugoslavia | Medical Service Yugoslav People â€™s Army | National Defence Government Socialist Federative Republic Yugoslavia | Socialist Federal Republic Yugoslavia | Socialist Federative Republic Yugoslavia | Yugoslav Army | Yugoslav People Army | Yugoslav Peoples Army | Yugoslav Republic Macedonia | Yugoslavia | SFRY | SFRY republics,,
40,IGO,IGO_40,IGO,IGO,Organization of African Unity,,OAU,OAU,,,,,,,,,,,,,Organisation De L'Unité Africaine || Organization Of African Unity || OUA || OAU || Organisation Of African Unity |  Organization Of African Unity  |  OUA  | Organisation Of African Unity | Organization of African Unity | Org for African Unity | Organization for African Unity | Organisation for African Unity | Organization African Unity | Organization African Unity  OFFICE FORUM | Organisation African Unity | OAU Representative,"Organization of African Unity (OAU) is an IGO, with affiliations to Regional Diplomatic IGOs (International Government Organizations). They are also referred to as Organisation De L'Unité Africaine || Organization Of African Unity || OUA || OAU || Organisation Of African Unity",
42,CON,CON_42,Country/State,Country/State,Benin,,BEN,BEN,Benin,BEN,204.0,434.0,BEN,BEN,434.0,Africa,1209.0,Government of Benin,Government of Benin (2016-),Government of Benin (2006-2016) | Government of Benin (2016-),Benin | BENIN | Republic BENIN | Republic Benin | Republic Benin  Mr FranÃƒÂ§ois | Republic of Benin | Republic Benin  Mr FranÃ§ois,,
43,CON,CON_43,Country/State,Country/State,Congo,,CON,CON,Congo,COG,178.0,484.0,CON,CON,484.0,Africa,88.0,Government of Congo,Government of the Republic of Congo (1997-),Government of the Republic of Congo (1997-),"Congo | CONGO, REPUBLIC OF | Republic of the Congo | Republic Congo",,
45,ENT,ENT_45,Entity,Entity,Abkhazia,,,Abkhazia,Georgia,GEO,268.0,372.0,GRG,GRG,372.0,,,,,,,,
46,CON,CON_46,Country/State,Country/State,Georgia,,GRG,GRG,Georgia,GEO,268.0,372.0,GRG,GRG,372.0,Asia,63.0,Government of Georgia,Government of Georgia (2012-),Government of Georgia (2012-),Georgia | GEORGIA | Georgia | GEORGIA | Georgia - E. SHEVARDNADZE | Georgia Germany | Georgia I. Menagarishvili | Georgia V. Goguadze | Republic Georgia | Republic Georgia E. A. Shevardnadze | Republic Georgia O. Patsatsia,,
47,ENT,ENT_47,Entity,Entity,North Caucasian,,,North Caucasian,Russian Federation,RUS,643.0,365.0,RUS,RUS,365.0,,,,,,,,
48,IGO,IGO_48,IGO,IGO,United Nations,United Nations (General),UN,UN,,,,,,,,,,,,,"United Nations || U.N. || UN | United Nations Representative | United Nations | UNITED NATIONS | United nations | United Nations - WILFRID | United Nations Babacar Gaye | United Nations Certified | United Nations H.E. | United Nations H.E. Yoweri | United Nations International Committee Red Cross International Federation Red Cross | UN Organization Chaired | United Nations Representative Organization Security Cooperation | United Nations Signed | United Nations USA Countries | United Nations , Economic Cooperation Organization | United Nations' Multidimensional Integrated Stabilization Mission | UNITED NATIONS COLOMBIA | UN Ad Litem | UN BH COMMAND | UN E. Brunner | UN Peace Monitoring Group Bougainville | United Nations Special Envoy | Untied Nations | The UN | U.N | U.N. | The U.N | UNA | United Nations Office | United Nations Organisation | United Nations Organization | United Nations Peace Forces | United Nations | Office United Nations | UN | UN & EC | United Nations  |  U.N.  |  UN | UN | United Nations | United Nations | Special Rapporteurs of the United Nations | UN & EC | Special Rapporteur Of The United Nations Human Rights Council  |  Special Rapporteur | UN International Police Task Force | United Nations  Babacar Gaye | United Nations  - WILFRID | United Nations Resident Coordinator","United Nations (UN) is an IGO, with affiliations to Global Diplomatic IGOs (International Government Organizations). They are also referred to as United Nations || U.N. || UN",
49,IGO,IGO_49,IGO,IGO,Conference on Security and Cooperation in Europe,,CSCE,CSCE,,,,,,,,,,,,,Helsinki Agreement || Helsinki Declaration | CSCE | Conference on Security and Cooperation in Europe,"The Conference on Security and Cooperation in Europe (CSCE) was an IGO established in 1973. It is the predecessor of the Organisation for Security and Cooperation in Europe (OSCE). It is often referred to as the Helsinki Agreement, as the final document was signed in Helsinki in 1975 by 33 European nations, the US and Canada to create the OSCE. ",
50,COA,COA_50,State Coalition,State Coalition,Group of Friends UNSG,,,Group of Friends UNSG,,,,,,,,,,,,,,The Group of Friends UNSG is a coalition of member states of the UN. The co-chairs of the  Group of Friends UNSG are the P5 Members of the UN Security Council: France | Germany | United States | Russia | United Kingdom. The full list of all members of the Group of Friends UNSG can be found here: https://www.unaoc.org/who-we-are/group-of-friends/members/,https://www.unaoc.org/who-we-are/group-of-friends/members/
51,IGO,IGO_51,IGO,IGO,Organization for Security and Cooperation in Europe,,OSCE,OSCE,,,,,,,,,,,,,OSCE || Organization For Security And Cooperation In Europe || Organisation For Security And Cooperation In Europe || Organisation For Security And Co-Operation In Europe || Organization For Security And Co-Operation In Europe |  Organisation For Security And Cooperation In Europe  |  Organisation For Security And Co-Operation In Europe  |  Organization For Security And Co-Operation In Europe | Org. Security Cooperation Europe | Organization for Security and Cooperation in Europe (OSCE) | Organisation Security | Organisation Security Cooperation | Organization Security CoÃ¢â‚¬Âoperation | Organization Security Cooperation | OSCE Assistance Group | OSCE Mission | OSCE Mission T. Guldimann | OSCE Support Group,"Organization for Security and Cooperation in Europe (OSCE) is an IGO, with affiliations to Regional Defense / Security IGOs (International Government Organizations). They are also referred to as OSCE || Organization For Security And Cooperation In Europe || Organisation For Security And Cooperation In Europe || Organisation For Security And Co-Operation In Europe || Organization For Security And Co-Operation In Europe",
52,IGO,IGO_52,IGO,IGO,Commonwealth of Independent States,,CIS,CIS,,,,,,,,,,,,,Commonwealth Of Independent States || CIS | CIS | Commonwealth of Independent States | Commonwealth of Independent States (CIS) |  Commonwealth Independent States,"Commonwealth of Independent States (CIS) is an IGO, with affiliations to Regional Diplomatic IGOs (International Government Organizations). It was formed following the dissolution of the Soviet Union in 1991. There are 9 member states of the CIS: Armenia, Azerbaijan, Belarus, Kazakhstan, Kyrgzstan, Molodva, Russia, Tajikistan and Uzbekistan. They are also referred to as Commonwealth Of Independent States || CIS",
53,CON,CON_53,Country/State,Country/State,Uzbekistan,,UZB,UZB,Uzbekistan,UZB,860.0,704.0,UZB,UZB,704.0,Asia,133.0,Government of Uzbekistan,Government of Uzbekistan (2016-),Government of Uzbekistan (2016-),Uzbekistan | UZBEKISTAN | Republic Uzbekistan | Republic Uzbekistan -  I. KARIMOV | Republic of Uzbekistan,,
54,CON,CON_54,Country/State,Country/State,Kyrgyzstan,,KYR,KYR,Kyrgyzstan,KGZ,417.0,703.0,KYR,KYR,703.0,Asia,132.0,Government of Kyrgyzstan,Government of Kyrgyzstan (2017-2020),Government of Kyrgyzstan (2017-2020),Kyrgyz Republic | KYRGYZSTAN | Kyrgyz Republic | Kyrgyz Republic - A. | Kyrgyz Republic : | Kyrgyzstan | Kyrgyztan | Supreme Soviet of Kyrgyzstan,,
55,CON,CON_55,Country/State,Country/State,Ukraine,,UKR,UKR,Ukraine,UKR,804.0,369.0,UKR,UKR,369.0,Europe,61.0,Government of Ukraine,Government of Ukraine (2019-),Government of Ukraine (2014-2019) | Government of Ukraine (2019-),Ukraine | UKRAINE | Ukraine,,
56,CON,CON_56,Country/State,Country/State,Kazakhstan,,KZK,KZK,Kazakhstan,KAZ,398.0,705.0,KZK,KZK,705.0,Asia,134.0,Government of Kazakhstan,Government of Kazakhstan (2019-),Government of Kazakhstan (1990-2019) | Government of Kazakhstan (2019-),Kazakhstan | KAZAKHSTAN | Kazakhstan | Kazakshtan | Kazakstan | Republic Kazakhstan | Republic Kazakhstan - N | Republic Kazakstan,,
57,CON,CON_57,Country/State,Country/State,Turkmenistan,,TKM,TKM,Turkmenistan,TKM,795.0,701.0,TKM,TKM,701.0,Asia,,,Government of Turkmenistan (2006-),Government of Turkmenistan (2006-),Turkmenistan | TURKMENISTAN | Turkmenistan,,
58,CON,CON_58,Country/State,Country/State,Armenia,,ARM,ARM,Armenia,ARM,51.0,371.0,ARM,ARM,371.0,Asia,62.0,Government of Armenia,Government of Armenia (2018-),Government of Armenia (2008-2018) | Government of Armenia (2018-),Armenia | ARMENIA | Republic Armenia - R. | Republic Armenia,,
59,CON,CON_59,Country/State,Country/State,Tajikistan,,TAJ,TAJ,Tajikistan,TJK,762.0,702.0,TAJ,TAJ,702.0,Asia,131.0,Government of Tajikistan,Government of Tajikistan (1994-),Government of Tajikistan (1994-),Tajikistan | TAJIKISTAN | Republic Tajikistan | Tajikistan | Tajikistan | Delegation Government Republic Tajikistan | Government Republic Tajikistan,,
60,CON,CON_60,Country/State,Country/State,Belarus,,BLR,BLR,Belarus,BLR,112.0,370.0,BLR,BLR,370.0,Europe,,,Government of Belarus (1994-),Government of Belarus (1994-),Belarus (Byelorussia) | BELARUS | Republic Belarus,,
61,CON,CON_61,Country/State,Country/State,Azerbaijan,,AZE,AZE,Azerbaijan,AZE,31.0,373.0,AZE,AZE,373.0,Asia,64.0,Government of Azerbaijan,Government of Azerbaijan (2003-),Government of Azerbaijan (2003-),Azerbaijan | AZERBAIJAN | Azerbaijan Republic | Azerbaijan Republic : | Azerbaijan Republic : S | Azerbaijani Republic - G. ALIYEV | Azerbaijani Republic : | Azerbaijani Supreme Soviet | Azerbaijan | Azerbaijan Ilham Aliyev | Republic Azerbaijan | Azerbaijan | Ministry Azerbaijan Republic : | Defence Azerbaijan : | Defence Azerbaijan Republic : | High Council Azerbaijan Republic : Jalilov  Acting | Army Azerbaijan Republic,,
62,CON,CON_62,Country/State,Country/State,Moldova,,MLD,MLD,"Moldova, Republic of",MDA,498.0,359.0,MLD,MLD,359.0,Europe,55.0,Government of Moldova,Government of Moldova (2021-),Government of Moldova (2016-2019) | Government of Moldova (2019-2020) | Government of Moldova (2021-) | Government of Moldova (2016-2019) Gagauzia Regional Government | Government of Moldova (2019-) Gagauzia Regional Government | Government of Moldova (2020-2021),"Moldova | MOLDOVA, REPUBLIC OF | Republic Moldova",,
63,IGO,IGO_63,IGO,IGO,CIS Peacekeeping Force,,CIS-PKF,CIS-PKF,,,,,,,,,,,,, | CPKF | CPKF of CIS | CIS Peace- Keeping Forces | PKF of the CIS,"The CIS Peacekeeping Force, is the peacekeeping force within the Commonwealth of Independent States (CIS). It is also referred to as",
64,IGO,IGO_64,IGO,IGO,United Nations,High Commission for Refugees,UNHCR,UNHCR,,,,,,,,,,,,,UNHCR || United Nations Commission For Refugees || Un Refugee Agency || U.N. High Commissioner For Refugees || U.N. Commission For Refugees || Un Commission For Refugees || Un High Commissioner For Refugees || United Nations High Commissioner For Refugees || United Nations Refugee Agency || U.N. Refugee Agency | United Nations High Commission Refugees | UNHCR | UNHCR ZENICA |  United Nations Commission For Refugees  |  Un Refugee Agency  |  U.N. High Commissioner For Refugees  |  U.N. Commission For Refugees  |  Un Commission For Refugees  |  Un High Commissioner For Refugees  |  United Nations High Commissioner For Refugees  |  United Nations Refugee Agency  |  U.N. Refugee Agency,"High Commission for Refugees (UNHCR) is an IGO, with affiliations to Global Refugees IGOs (United Nations). They are also referred to as UNHCR || United Nations Commission For Refugees || Un Refugee Agency || U.N. High Commissioner For Refugees || U.N. Commission For Refugees || Un Commission For Refugees || Un High Commissioner For Refugees || United Nations High Commissioner For Refugees || United Nations Refugee Agency || U.N. Refugee Agency",
65,IGO,IGO_65,IGO,IGO,United Nations,United Nations Development Programme,UNDP,UNDP,,,,,,,,,,,,,United Nations Development Program || UNDP || United Nations Development Programme | United Nations Development Programme | UNDP | United Nations Development Program  |  UNDP  |  United Nations Development Programme,"United Nations Development Programme (UNDP) is an IGO, with affiliations to Global Development IGOs (International Government Organizations). They are also referred to as United Nations Development Program || UNDP || United Nations Development Programme",
72,CON,CON_72,Country/State,Country/State,India,,IND,IND,India,IND,356.0,750.0,IND,IND,750.0,Asia,141.0,Government of India,Government of India (2014-),Government of India (2014-),India | INDIA | India | Republic India | India | Government India | Government India Ministry Home Affairs | Government Republic India | Indian,,
75,CON,CON_75,Country/State,Country/State,Iraq,,IRQ,IRQ,Iraq,IRQ,368.0,645.0,IRQ,IRQ,645.0,Asia,116.0,Government of Iraq,Government of Iraq (2020-),Government of Iraq (2014-2018) | Government of Iraq (2018-2020) | Government of Iraq (2020-),Iraq | IRAQ | Iraq | Republic Iraq | Iraq | Delegation Iraq | Iraqi Governing Council,,
76,ARM,ARM_76,Armed Organization,Armed Group,Palestine Liberation Organization ,,PLO,PLO,,PSE,,,,,,,204.0,PLO,,,Palestine Liberation Organisation | Palestine Liberation Organization | Palestinian Liberation Organisation | Palestinian Liberation Organization | Palestinian Liberation Organization Delegation | PLO | PLO Executive Committee,,
77,CON,CON_77,Country/State,Country/State,Lebanon,,LEB,LEB,Lebanon,LBN,422.0,660.0,LEB,LEB,660.0,Asia,119.0,Government of Lebanon,Government of Lebanon (2020-2021),Government of Lebanon (2016-2019) | Government of Lebanon (2019-2020) | Government of Lebanon (2020-2021),Lebanon | LEBANON | Lebanese Republic | Lebanon | Lebanon | Lebanese Government,,
78,CON,CON_78,Country/State,Country/State,Syrian Arab Republic,,SYR,SYR,Syrian Arab Republic,SYR,760.0,652.0,SYR,SYR,652.0,Asia,118.0,Government of Syria,Government of Syria (2000-),Government of Syria (2000-),Syria | SYRIAN ARAB REPUBLIC | Syrian Arab Republic | Syria | Syria | Syrian Government,,
79,CON,CON_79,Country/State,Country/State,Israel,,ISR,ISR,Israel,ISR,376.0,666.0,ISR,ISR,666.0,Asia,121.0,Government of Israel,Government of Israel (2009-2021),Government of Israel (2009-2021),Israel | ISRAEL,,
80,CON,CON_80,Country/State,Country/State,Jordan,,JOR,JOR,Jordan,JOR,400.0,663.0,JOR,JOR,663.0,Asia,120.0,Government of Jordan,Government of Jordan (1999-),Government of Jordan (1999-),Jordan | JORDAN,,
81,CON,CON_81,Country/State,Country/State,Norway,,NOR,NOR,Norway,NOR,578.0,385.0,NOR,NOR,385.0,Europe,67.0,Government of Norway,Government of Norway (2013-),Government of Norway (2013-),Norway | NORWAY | Kingdom Norway | Kingdom Norway  Bolivarian Republic Venezuela | Norway | NORWAY | Norway | Norwegian Government | Royal Norwegian Government | ROYAL NORWEGIAN GOVERNMENT Party Facilitator | ROYAL NORWEIGAN GOVERNMENT | Royal Government of Norway,,
82,CON,CON_82,Country/State,Country/State,Egypt,,EGY,EGY,Egypt,EGY,818.0,651.0,EGY,EGY,651.0,Africa,117.0,Government of Egypt,Government of Egypt (2014-),Government of Egypt (2012-2013) | Government of Egypt (2013-2014) | Government of Egypt (2014-) | Government of Egypt (1981-2011) | Government of Egypt (2011-2012),Egypt | EGYPT | Egypt | EGYPT | Republic Egypt |  the Arab Republic of Egypt | Egypt | Egyptian Government | Arab Republic Egypt,,
85,CON,CON_85,Country/State,Country/State,Nigeria,,NIG,NIG,Nigeria,NGA,566.0,475.0,NIG,NIG,475.0,Africa,84.0,Government of Nigeria,Government of Nigeria (2015-),Government of Nigeria (1999-2015) | Government of Nigeria (2015-),Nigeria | NIGERIA | Federal Republic Nigeria | Federal Republic NIGERIA | Federal Republic Nigeria : Olusegun Obasanjo | Federal Republic Nigeria ] Page | Nigeria | Republic Nigeria | Federal Republic of Nigeria | Republic of Nigeria  | Federal Government Nigeria,,
90,IGO,IGO_90,IGO,IGO,African Union,,AU,AU,,,,,,,,,,,,,African Union || AU || THE AU | AU | Africa Union | African Union Commission | Commission of the African Union | L'Union Africaine | Chairperson of the African Union | Commission de lâ€™Union Africaine | Troika of the African Union | Secretary-General of the Organization of African Unity | African Union Mission for Mali and the Sahel | MISAHEL | MISMA | African Union High Level Ad-hoc Committee for South Sudan | African Union High-level Implementation Panel for Sudan and South Sudan | AUHIP | African Union Facilitator to the AJOC | African Union High Level Implementation Panel | Chairperson Africa Union | Chairperson African Union Commission  IV | Chairperson Commission African Union  - ( Signed | Chairperson Commission African Union ] | African Union | AFRICAN UNION | African Union ' | African Union - ( Signed | African Union - H.E. Kofi A. Annan | African Union Cc | African Union Excellency | African Union Commission | African Union Facilitator | African Union High | African Union High Level | African Union Mali | African Union Mission Mali | African Union SRCC Francisco Madeira | African Unity | AU | AU - UN | AU & ECOWAS | AU / UN Mediation | AU Commission | AU Headquarters | AUC | AUHIP | African Union  |  AU  |  THE AU | AU | African Union | Organisation African Union | Commission African Union  Excellency Ahmedou Ould ABDALLAH  Special Representative Secretary - General | African Union  Excellency | African Union  - H.E. Kofi A. Annan | African Union High Level Ad - hoc Committee South Sudan,"African Union (AU) is an IGO, with affiliations to Regional Diplomatic IGOs (International Government Organizations). They are also referred to as African Union || AU || THE AU",
97,CON,CON_97,Country/State,Country/State,Mozambique,,MZM,MZM,Mozambique,MOZ,508.0,541.0,MZM,MZM,541.0,Africa,100.0,Government of Mozambique,Government of Mozambique (1990-),Government of Mozambique (1990-),Mozambique | MOZAMBIQUE | People Republic Mozambique | Republic Mozambique | Republic Mozambique Current | GRM | Government of the Republic of Mozambique,,
139,CON,CON_139,Country/State,Country/State,Italy,,ITA,ITA,Italy,ITA,380.0,325.0,ITA,ITA,325.0,Europe,44.0,Government of Italy,Government of Italy (2018-),Government of Italy (2018-),Italy/Sardinia | ITALY | Italy | ITALY | Republic Italy | Italy | Government Italian Public | Government Italy | Italian Government  Signing | Italian Republic,,
140,CON,CON_140,Country/State,Country/State,Niger,,NIR,NIR,Niger,NER,562.0,436.0,NIR,NIR,436.0,Africa,75.0,Government of Niger,Government of Niger (2021-),Government of Niger (2011-2021) | Government of Niger (2021-),"Niger | NIGER | Niger | Niger  Yahaya Assoumane | Republic Niger | Republic NIGER | Republic Niger Ã¢â‚¬Â¢ | Republic Niger Excellency Olusegun OBASANJO | Republic Niger MaÃƒÂ¯ MaÃƒÂ¯ Gana | Republic Niger Mr MAÃƒÂ MAÃƒÂ | Republic Niger , Current | Republic Niger ISSOFOU OUBANDAWAKI | Republic Niger  Excellency Olusegun OBASANJO",,
145,CON,CON_145,Country/State,Country/State,Nepal,,NEP,NEP,Nepal,NPL,524.0,790.0,NEP,NEP,790.0,Asia,146.0,Government of Nepal,Government of Nepal (2015-),Government of Nepal (2008-2015) | Government of Nepal (2015-),"Nepal | NEPAL | Nepal | Nepal | Government Nepal | Government Nepal , Coordinator : | Government Nepal : Coordinator : | Government Nepal Negotiating Team | Nepali Congress",,
155,CON,CON_155,Country/State,Country/State,Sudan,,SUD,SUD,Sudan,SDN,736.0,625.0,SUD,SUD,625.0,Africa,112.0,Government of Sudan,Government of Sudan (2019-),Government of Sudan (1989-2019) | Government of Sudan (2019-),Sudan | SUDAN | Republic Sudan | Republic SUDAN | Republic Sudan H.E. P | Sudan | Sudan : Lino Roll Deng | Sudan | Government Republic Sudan | Sudan Government | SUDAN GOVERNMENT | Sudan Government Delegation | Sudanese Government | Republic Sudan  H.E. P,,
158,CON,CON_158,Country/State,Country/State,Chad,,CHA,CHA,Chad,TCD,148.0,483.0,CHA,CHA,483.0,Africa,87.0,Government of Chad,Government of Chad (2021-),Government of Chad (1990-2021) | Government of Chad (2021-),Chad | CHAD | Chad | Republic Chad | Republic Chad  - Moussa Faki MAHAMAT | RÃ©publique du Tchad,,
159,CON,CON_159,Country/State,Country/State,Ethiopia,,ETH,ETH,Ethiopia,ETH,231.0,530.0,ETH,ETH,530.0,Africa,97.0,Government of Ethiopia,Government of Ethiopia (2018-),Government of Ethiopia (1991-2018) | Government of Ethiopia (2018-),Ethiopia | ETHIOPIA | Democratic Republic Ethiopia | Ethiopia | ETHIOPIA | ETHIOPIAN | Ethopia | Federal Democratic Republic Ethiopia  - Representing Facilitator | Republic Ethiopia | Ethiopia | Ethiopian Government | Federal Democratic Republic Ethiopia | FEDERAL DEMOCRATIC REPUBLIC ETHIOPIA,,
160,CON,CON_160,Country/State,Country/State,Philippines,,PHI,PHI,Philippines,PHL,608.0,840.0,PHI,PHI,840.0,Asia,154.0,Government of Philippines,Government of the Philippines (2016-),Government of the Philippines (2010-2016) | Government of the Philippines (2016-),Philippines | PHILIPPINES | Philippines | GOVERNMENT REPUBLIC PHILIPPINES | Government Republic Philippines | Government Republic Philippines Mohagher Iqbal | PHILIPPINES | GRP Panel Chair | GRP Panel Executive | GRP Panel Peace Talks | GRP Panelen ATTY | GRP Peace Panel | GRP Representative | GRP SCCH Chairman | GRP Secretariat Victor I. Erfe | GRP Sub - Committee Cessation Hostilities | GRP Sub - Committee Cessation Hostilities ( CCCH | GRP Sub - Committee Cessation Hostilities Chairperson | GRP Technical Comittee Chairperson | GRP Technical Committee | GRP Technical Committee Acting Chairperson | GRP Technical Committee Chairperson | GRP Technical Working Group | House Representatives GRP,,
162,CON,CON_162,Country/State,Country/State,Indonesia,,INS,INS,Indonesia,IDN,360.0,850.0,INS,INS,850.0,Asia,155.0,Government of Indonesia,Government of Indonesia (2014-),Government of Indonesia (2014-),Indonesia | INDONESIA | Indonesia | Republic Indonesia | Republic lndonesia | Indonesia  | Indonesian Government,,
169,CON,CON_169,Country/State,Country/State,Ireland,,IRE,IRE,Ireland,IRL,372.0,205.0,IRE,IRE,205.0,Europe,29.0,Government of Ireland,Government of Ireland (2017-2020),Government of Ireland (2017-2020),Ireland | IRELAND | Ireland | Republic of Ireland | Republic Ireland | Ireland | Irish Government | Irish Governments | Republic Ireland Government | Taoiseach,,
171,CON,CON_171,Country/State,Country/State,Finland,,FIN,FIN,Finland,FIN,246.0,375.0,FIN,FIN,375.0,Europe,65.0,Government of Finland,Government of Finland (2019-),Government of Finland (2019-),Finland | FINLAND | Finland | FINLAND | Republic Finland,,
174,CON,CON_174,Country/State,Country/State,Tanzania,,TAZ,TAZ,"Tanzania, United Republic of",TZA,834.0,510.0,TAZ,TAZ,510.0,Africa,92.0,Government of Tanzania,Government of Tanzania (1964-),Government of Tanzania (1964-),"Tanzania/Tanganyika | TANZANIA, UNITED REPUBLIC OF | Republic Tanzania | Tanzania | Tanzanian Republic  - ABDOU DIOUF | United Republic of Tanzania | United Republic Tanzania",,
175,CON,CON_175,Country/State,Country/State,Kenya,,KEN,KEN,Kenya,KEN,404.0,501.0,KEN,KEN,501.0,Africa,91.0,Government of Kenya,Government of Kenya (2013-),Government of Kenya (2002-2013) | Government of Kenya (2013-),Kenya | KENYA | Kenya | Republic Keny | Republic Kenya | Kenya | Government Republic Kenya | Kenya Government Facilitation Team | KENYAN GOVERNMENT REPRESENTATIVES  1 | Kenyua,,
179,CON,CON_179,Country/State,Country/State,Chile,,CHL,CHL,Chile,CHL,152.0,155.0,CHL,CHL,155.0,Americas,25.0,Government of Chile,Government of Chile (2022-),Government of Chile (2018-2022) | Government of Chile (2022-),Chile | CHILE | Chile | CHILE | Republic Chile,,
181,CON,CON_181,Country/State,Country/State,Colombia,,COL,COL,Colombia,COL,170.0,100.0,COL,COL,100.0,Americas,17.0,Government of Colombia,Government of Colombia (2018-),Government of Colombia (2018-),Colombia | COLOMBIA | Colombia | Republic Colombia | Colombia | Colombian National Government | National Government Colombia,,
201,NGO,NGO_201,NGO,NGO,International Committee of the Red Cross,,,International Committee of the Red Cross,,,,,,,,,,,,,,,
202,CON,CON_202,Country/State,Country/State,Switzerland,,SWZ,SWZ,Switzerland,CHE,756.0,225.0,SWZ,SWZ,225.0,Europe,34.0,Government of Switzerland,,,Switzerland | SWITZERLAND | Swiss Confederation | SWISS CONFEDERATION | Switzerland | SWITZERLAND,,
219,CON,CON_219,Country/State,Country/State,South Africa,,SAF,SAF,South Africa,ZAF,710.0,560.0,SAF,SAF,560.0,Africa,102.0,Government of South Africa,Government of South Africa (1994-),Government of South Africa (1994-),South Africa | SOUTH AFRICA | Republic South Afirca | Republic South Africa | South Africa | SOUTH AFRICA | South Africa | Government Republic South Africa | South African Government & | South African Parliament,,
227,IGO,IGO_227,IGO,IGO,Organisation of Islamic Cooperation,,OIC,OIC,,,,,,,,,,,,,Organisation Of Islamic Cooperation || Organization Of Islamic Cooperation || Organization Of The Islamic Conference || OIC || Organisation Of The Islamic Conference |  Organization Of Islamic Cooperation  | Organization Of The Islamic Conference  |  OIC  | Organisation Of The Islamic Conference | Organization of the Islamic Conference (OIC) | Org. Islamic Conference | Organization of the Islamic Conference (OIC) | Organization of the Islamic Conference | Org. of the Islamic Conference | OCI | Organization of the Islamic Conference | Organisation de la coopération islamique | منظمة التعاون الإسلامي |  l'Organisations de la Coopération Islamique | l'OCC | the Organization of the Islamic Conference,"Organisation of Islamic Cooperation (OIC) is an IGO, with affiliations to Global Diplomatic IGOs (International Government Organizations). They are also referred to as Organisation Of Islamic Cooperation || Organization Of Islamic Cooperation || Organization Of The Islamic Conference || OIC || Organisation Of The Islamic Conference",
228,CON,CON_228,Country/State,Country/State,Morocco,,MOR,MOR,Morocco,MAR,504.0,600.0,MOR,MOR,600.0,Africa,108.0,Government of Morocco,Government of Morocco (1999-),Government of Morocco (1999-),Morocco | MOROCCO | Kingdom Morocco | Morocco &,,
246,POL,POL_246,Political Party,Political Party,FUNCINPEC,,,FUNCINPEC,Cambodia,KHM,116.0,811.0,CAM,CAM,811.0,Asia,,,,,"National United Front for an Independent, Neutral, Peaceful and Cooperative Cambodia",,
247,CON,CON_247,Country/State,Country/State,Cambodia,,CAM,CAM,Cambodia,KHM,116.0,811.0,CAM,CAM,811.0,Asia,148.0,Government of Cambodia (Kampuchea),Government of Cambodia (1993-),Government of Cambodia (1993-),Cambodia (Kampuchea) | CAMBODIA | Cambodia | Kingdom of Cambodia | Kingdom Cambodia,,
255,CON,CON_255,Country/State,Country/State,Algeria,,ALG,ALG,Algeria,DZA,12.0,615.0,ALG,ALG,615.0,Africa,109.0,Government of Algeria,Government of Algeria (2019-),Government of Algeria (1999-2019) | Government of Algeria (2019-),Algeria | ALGERIA | People's Democratic Republic Algeria | People's Democratic Republic Algeria  Ã¢â‚¬Â¢ | People's Democratic Republic Algeria :  ( Signed ) Ramtane Lamamra | People's Democratic Republic of Algeria | Democratic and Popular Republic of Algeria | RÃ©publique AlgÃ©rinne DÃ©mocratique et Populaire | People â€™s Democratic Republic Algeria | Popular Republic Algeria | People â€™s Democratic Republic Algeria | People â€™s Democratic Republic Algeria  â€¢ | People â€™s Democratic Republic Algeria :  ( Signed ) Ramtane Lamamra,,
258,CON,CON_258,Country/State,Country/State,Angola,,ANG,ANG,Angola,AGO,24.0,540.0,ANG,ANG,540.0,Africa,99.0,Government of Angola,Government of Angola (1975-),Government of Angola (1975-),Angola | ANGOLA | Angol | Angola | Republic Angola,,
259,ARM,ARM_259,Armed Organization,Armed Group,National Union for the Total Independence of Angola,,UNITA,UNITA,Angola,AGO,24.0,540.0,ANG,ANG,540.0,Africa,567.0,UNITA,UNITA: National Union for the Total Independence of Angola,,União Nacional para a Independência Total de Angola,,
260,CON,CON_260,Country/State,Country/State,Portugal,,POR,POR,Portugal,PRT,620.0,235.0,POR,POR,235.0,Europe,36.0,Government of Portugal,Government of Portugal (2015-),Government of Portugal (2015-),Portugal | PORTUGAL | Portugal | PORTUGAL | Portuguese Republic | Portugal | Portuguese Government,,
263,UMB,UMB_263,Umbrella,Umbrella,United Tajik Opposition,,,United Tajik Opposition,Tajikistan,TJK,762.0,702.0,TAJ,TAJ,702.0,Asia,,,,,,,
264,CON,CON_264,Country/State,Country/State,"Congo, Democratic Republic of the",,DRC,DRC,"Congo, Democratic Republic of the",COD,180.0,490.0,DRC,DRC,490.0,Africa,89.0,Government of DR Congo (Zaire),Government of the Democratic Republic of Congo (2019-),Government of the Democratic Republic of Congo (1997-2001) | Government of the Democratic Republic of Congo (2001-2019) | Government of the Democratic Republic of Congo (2019-),"Congo, Democratic Republic of (Zaire) | CONGO, THE DEMOCRATIC REPUBLIC OF | Democratic Republic | Democratic Republic Congo | Republic Democratic Republic Congo",,
267,CON,CON_267,Country/State,Country/State,Botswana,,BOT,BOT,Botswana,BWA,72.0,571.0,BOT,BOT,571.0,Africa,105.0,Government of Botswana,,,Botswana | BOTSWANA,,
268,CON,CON_268,Country/State,Country/State,Mexico,,MEX,MEX,Mexico,MEX,484.0,70.0,MEX,MEX,70.0,Americas,10.0,Government of Mexico,Government of Mexico (2018-),Government of Mexico (2018-),Mexico | MEXICO | MEXICO | Mexico | United Mexican States | Mexico | Mexican Foreign Ministry | Mexican Government,,
273,CON,CON_273,Country/State,Country/State,North Korea,,PRK,PRK,Korea (Democratic People's Republic of),PRK,408.0,731.0,PRK,PRK,,Asia,138.0,Government of North Korea,Government of North Korea (2011-),Government of North Korea (2011-),"Korea, People's Republic of | KOREA, DEMOCRATIC PEOPLE'S REPUBLIC OF | Democratic People's Republic | Democratic People Republic Korea",,
275,ENT,ENT_275,Entity,Entity,Chechen Republic,,,Chechen Republic,Russian Federation,RUS,643.0,365.0,RUS,RUS,365.0,,,,,,,,
281,CON,CON_281,Country/State,Country/State,Australia,,AUL,AUL,Australia,AUS,36.0,900.0,AUL,AUL,900.0,Oceania,156.0,Government of Australia,Government of Australia (2013-),Government of Australia (2013-),Australia | AUSTRALIA | Australia |  Commonwealth of Australia,,
282,CON,CON_282,Country/State,Country/State,New Zealand,,NEW,NEW,New Zealand,NZL,554.0,920.0,NEW,NEW,920.0,Oceania,158.0,Government of New Zealand,Government of New Zealand (2017-),Government of New Zealand (2017-),New Zealand | NEW ZEALAND | New Zealand | NEW ZEALAND,,
284,ARM,ARM_284,Armed Organization,Political Party/Armed Group,Sudan People's Liberation Movement/Army ,,SPLM/A,SPLM/A,Sudan,SDN,736.0,625.0,SUD,SUD,625.0,Africa,466.0,SPLM/A,SPLM/A: Sudan People's Liberation Movement/Army,,Sudan People Ã¢â‚¬â„¢s Liberation Movement | Sudan People Liberation Army | Sudan People Liberation Movement | Sudan People Liberation Movement / Army | Sudan People Liberation Movement / Army - North | Sudan People Liberation Movement / Sudan People Liberation Army | Sudan People Liberation Movement/ Army | Sudan Peoples ' Liberation Movement Ross Mountain United Nations | Sudan Peoples Liberation Movement | SPLM - Detainees | SPLM - FDs | SPLM - IG | SPLM - United | SPLM / | SPLM / - N | SPLM / NUBA | SPLM / SPLA,,
286,CON,CON_286,Country/State,Country/State,Bangladesh,,BNG,BNG,Bangladesh,BGD,50.0,771.0,BNG,BNG,771.0,Asia,143.0,Government of Bangladesh,Government of Bangladesh (2009-),Government of Bangladesh (2009-),Bangladesh | BANGLADESH | People's Republic Bangladesh | Peoples  Republic Bangladesh  SD/- | People's Republic of Bangladesh | People â€™s Republic Bangladesh,,
288,CON,CON_288,Country/State,Country/State,Afghanistan,,AFG,AFG,Afghanistan,AFG,4.0,700.0,AFG,AFG,700.0,Asia,130.0,Government of Afghanistan,Government of Afghanistan (2021-),Government of Afghanistan (2014-2021) | Government of Afghanistan (2021-),Afghanistan | AFGHANISTAN | Islamic Republic of Afghanistan | Islamic Republic Afghanistan | Islamic Republic Afghanistan | Afghan Government | Afghan Government | Afghan Interim Administration,,
289,CON,CON_289,Country/State,Country/State,Iran (Islamic Republic of),,IRN,IRN,Iran (Islamic Republic of),IRN,364.0,630.0,IRN,IRN,630.0,Asia,114.0,Government of Iran,Government of Iran (1989-),Government of Iran (1989-),"Iran (Persia) | IRAN, ISLAMIC REPUBLIC OF | Iran | Islamic Republic Iran",,
290,CON,CON_290,Country/State,Country/State,Cameroon,,CAO,CAO,Cameroon,CMR,120.0,471.0,CAO,CAO,471.0,Africa,83.0,Government of Cameroon,Government of Cameroon (1982-),Government of Cameroon (1982-),Cameroon | CAMEROON | Cameroon | Republic Cameroon | Republic Cameroon :,,
292,CON,CON_292,Country/State,Country/State,Brunei,,BRU,BRU,Brunei Darussalam,BRN,96.0,835.0,BRU,BRU,835.0,Asia,,,Government of Brunei (1984-),Government of Brunei (1984-),Brunei | BRUNEI DARUSSALAM,,
293,CON,CON_293,Country/State,Country/State,Laos,,LAO,LAO,Lao People's Democratic Republic,LAO,418.0,812.0,LAO,LAO,812.0,Asia,149.0,Government of Laos,Government of Laos (1991-),Government of Laos (1991-),Laos | LAO PEOPLE'S DEMOCRATIC REPUBLIC,,
294,CON,CON_294,Country/State,Country/State,Thailand,,THI,THI,Thailand,THA,764.0,800.0,THI,THI,800.0,Asia,147.0,Government of Thailand,Government of Thailand (2019-),Government of Thailand (2008-2011) | Government of Thailand (2014-2019) | Government of Thailand (2019-),Thailand | THAILAND | Kingdom Thailand | Thailand,,
295,CON,CON_295,Country/State,Country/State,Singapore,,SIN,SIN,Singapore,SGP,702.0,830.0,SIN,SIN,830.0,Asia,153.0,Government of Singapore,Government of Singapore (1965-),Government of Singapore (1965-),Singapore | SINGAPORE | Republic Singapore | Singapore | Republic of Singapore,,
296,CON,CON_296,Country/State,Country/State,Vietnam,,RVN,RVN,Viet Nam,VNM,704.0,817.0,RVN,RVN,816.0,Asia,150.0,Government of Vietnam (North Vietnam),Government of Vietnam (1976-),Government of Vietnam (1976-),"Vietnam, Republic of | VIETNAM | Socialist Republic of Vietnam | Socialist Republic Viet Nam | Socialist Republic Vietnam | Socialist Republic of Vietnam",,
297,CON,CON_297,Country/State,Country/State,Japan,,JPN,JPN,Japan,JPN,392.0,740.0,JPN,JPN,740.0,Asia,140.0,Government of Japan,Government of Japan (2012-),Government of Japan (2012-),Japan | JAPAN | JAPAN,,
298,ARM,ARM_298,Armed Organization,Armed Group,Khmer People’s National Liberation Front,,KPNLF,KPNLF,Cambodia,KHM,116.0,811.0,CAM,CAM,811.0,Asia,272.0,KPNLF,,,,,
300,CON,CON_300,Country/State,Country/State,El Salvador,,SAL,SAL,El Salvador,SLV,222.0,92.0,SAL,SAL,92.0,Americas,13.0,Government of El Salvador,Government of El Salvador (2019-),Government of El Salvador (2019-),El Salvador | EL SALVADOR | El Salvador | El Salvadort | Republic El Salvador,,
302,CON,CON_302,Country/State,Country/State,Sri Lanka,,SRI,SRI,Sri Lanka,LKA,144.0,780.0,SRI,SRI,780.0,Asia,145.0,Government of Sri Lanka,Government of Sri Lanka (2015-2019),Government of Sri Lanka (2015-2019),Sri Lanka (Ceylon) | SRI LANKA | Sri Lanka | Sri Lanka | Government Sri Lanka | Sri Lankan Government,,
303,CON,CON_303,Country/State,Country/State,Yemen,,YEM,YEM,Yemen,YEM,887.0,678.0,YEM,YEM,679.0,Asia,123.0,Government of Yemen (North Yemen),Government of Yemen (2012-),Government of Yemen (2012-) | Government of Yemen (2015-2016) Supreme Revolutionary Committee | Government of Yemen (2016-) Supreme Political Council,Yemen (Arab Republic of Yemen) | YEMEN | Republic Yemen | Yemen | Republic of Yemen | Yemen | Government Yemen | Yemeni Government,,
304,OTH,OTH_304,Other,Other,Presidential Council,,,Presidential Council,Yemen,YEM,887.0,678.0,YEM,YEM,679.0,Asia,,,,,,,
305,POL,POL_305,Political Party,Political Party,Democratic Kampuchea,,,Democratic Kampuchea,Cambodia,KHM,116.0,811.0,CAM,CAM,811.0,Asia,,,,,Khmer Rouge,,
312,IGO,IGO_312,IGO,IGO,Intergovernmental Authority on Development,,IGAD,IGAD,,,,,,,,,,,,,"Intergovernmental Authority On Development || IGAD || Inter-Governmental Authority On Development | Intergovernmental Authority on Development | IGAD | IGAD - South Sudan Office Representative Facilitator | IGAD & AU | IGAD African Union | IGAD Assembly | IGAD Chair | IGAD Council Ministers | IGAD Council Ministers H.E. Tedros Adhanom | IGAD Envoys | IGAD Ministerial Sub - Committee | IGAD Partners | IGAD Partners Forum | IGAD Partners Forum Representatives | IGAD Special | IGAD Special Envoy Somalia | IGAD Special Envoys | IGAD Sub - Committee | Intergovernmental Authority Development | Intergovernmental Authority Development ( IGAD ) | Special Envoy IGAD Sudan | IGAD Partners Forum | IPF  | Chair IGAD | Chair IGAD  Republic Uganda  Republic Sudan  Republic Djibouti  Republic Somalia  Republic Kenya  B | Chairperson IGAD | Intergovernmental Authority On Development  |  IGAD  |  Inter-Governmental Authority On Development | Inter - Governmental Authority Development , League Arab States | Intergovernmental Authority Development | Intergovernmental Authority Development ( IGAD ) | Intergovernmental Authority on Development (IGAD)/Inter-Governmental Authority o | Inter-Gov Authority on Drought Protection | Intergovernmental Authority on Development (IGAD)/Inter-Governmental Authority o | Chairperson IGAD | IGAD | IGAD - South Sudan Office Representative Facilitator | IGAD Council Ministers | IGAD Partners | IGAD Partners Forum | IGAD Partners Forum Representatives | Inter - Governmental Authority Development , League Arab States","Intergovernmental Authority on Development (IGAD) is an IGO, with affiliations to Regional Development IGOs (International Government Organizations). They are also referred to as Intergovernmental Authority On Development || IGAD || Inter-Governmental Authority On Development",
313,ARM,ARM_313,Armed Organization,Armed Group,Republika Srpska,,,Republika Srpska,Bosnia and Herzegovina,BIH,70.0,346.0,BOS,BOS,346.0,Europe,,,,, ARMED FORCES SFRY | Socialist Federal Republic of Yugoslavia Armed Forces | Army Republika Srpska | Army of Republika Srpska,,
331,CON,CON_331,Country/State,Country/State,Rwanda,,RWA,RWA,Rwanda,RWA,646.0,517.0,RWA,RWA,517.0,Africa,94.0,Government of Rwanda,Government of Rwanda (1994-),Government of Rwanda (1994-),Rwanda | RWANDA | Republic Rawanda | Republic Rwanda | Rwanda | Rwanda | Government Republic Rwanda,,
347,IGO,IGO_347,IGO,IGO,League of Arab States,,LOAS,LOAS,,,,,,,,,,,,,League Of Arab States || Arab League | League of Arab States | League of Arab States | League Arab States | League Arab States,The League of Arab States is an IGO with affiliations to Regional Diplomatic IGOs (International Government Organizations). ,
355,IGO,IGO_355,IGO,IGO,UN Mission,UNPROFOR,UNPROFOR,UNPROFOR,,,,,,,,,,,,,United Nations Protection Force,,
386,IGO,IGO_386,IGO,IGO,United Nations,UN Secretary General,UNSG,UNSG,,,,,,,,,,,,, | United Nations SecretaryÃ¢â‚¬ÂGeneral | UNSG | UNSRSG | UNSRSG Special Representative | UN Special Representative | United Nations General | United Nations SecretaryÃ¢â‚¬ÂGeneral | United Nations Special Envoy | UNSG | UNSRSG Special Representative | UNSRSG | Special Representative Secretary - General | Group Friends UNSG | United Nations SecretaryÃ¢â‚¬ÂGeneral,"The Secretary-General of the United Nations (UNSG) is the chief administrative officer of the United Nations, and head of the United Nations Secretariat. They are included in the IGO type as they, and their special representatives, are representatives of the UN (an IGO). ",
391,IGO,IGO_391,IGO,IGO,United Nations,United Nations Secretariat,UN Secretariat,UN Secretariat,,,,,,,,,,,,,United Nations Secretariat || Secretariat Of The United Nations || U.N. Secretariat || Un Secretariat | United Nations Secretariat | United Nations Secretariat United Nations Human Settlement Programme United Nations Development Programme | United Nations Secretariat  |  Secretariat Of The United Nations  |  U.N. Secretariat  |  Un Secretariat,"United Nations Secretariat (UN Secretariat) is an IGO, with affiliations to United Nations. They are also referred to as United Nations Secretariat || Secretariat Of The United Nations || U.N. Secretariat || Un Secretariat",
393,CON,CON_393,Country/State,Country/State,Libya,,LIB,LIB,Libya,LBY,434.0,620.0,LIB,LIB,620.0,Africa,111.0,Government of Libya,Government of Libya (2012-2014),Government of Libya (1969-2011) | Government of Libya (2011-2012) | Government of Libya (2012-2014) | Government of Libya (2014-) General National Congress | Government of Libya (2014-) House of Representatives | Government of Libya (2016-2021) Government of National Accord | Government of Libya (2021-) Government of National Unity | Government of Libya (2022-) Parliament-Appointed Government,Libya | LIBYAN ARAB JAMAHIRIYA | Libya | Libyan Arab Jamahiriya,,
395,CON,CON_395,Country/State,Country/State,Romania,,,Romania,Romania,ROU,642.0,,,ROM,360.0,Europe,56.0,Government of Romania,Government of Romania (2021-),Government of Romania (2019-2020) | Government of Romania (2020-2021) | Government of Romania (2021-) | Government of Romania (2016-2019),Romania | ROMANIA,,
396,CON,CON_396,Country/State,Country/State,Pakistan,,PAK,PAK,Pakistan,PAK,586.0,770.0,PAK,PAK,770.0,Asia,142.0,Government of Pakistan,Government of Pakistan (2018-2022),Government of Pakistan (2008-2013) | Government of Pakistan (2013-2018) | Government of Pakistan (2018-2022),Pakistan | PAKISTAN | Islamic Republic Pakistan | Pakistan | Pakistan | Government Islamic Republic | Government Islamic Republic Pakistan | Pakistani Government | Pakistani,,
407,IGO,IGO_407,IGO,IGO,North Atlantic Treaty Organization,,NATO,NATO,,,,,,,,,,,,,North Atlantic Treaty Organization || NATO || North Atlantic Treaty Organisation | NATO | North Atlantic Treaty Organization | North Atlantic Treaty Organisation | North Atlantic Treaty Organization | North Atlantic Treaty Organization Alija | North Atlantic Treaty Organization  |  NATO  |  North Atlantic Treaty Organisation | North Atlantic Treaty Org | North Atlantic Treaty Organization (NATO) | North Atlantic Treaty Organization  Alija,"North Atlantic Treaty Organization (NATO) is an IGO/miliary alliance, with affiliations to Global Defense / Security IGOs (International Government Organizations). It consists of 30 member states (28 European and 2 North American). They are also referred to as North Atlantic Treaty Organization || NATO || North Atlantic Treaty Organisation || North Atlantic Alliance",
419,CON,CON_419,Country/State,Country/State,Saudi Arabia,,SAU,SAU,Saudi Arabia,SAU,682.0,670.0,SAU,SAU,670.0,Asia,122.0,Government of Saudi Arabia,Government of Saudi Arabia (2015-),Government of Saudi Arabia (2015-),Saudi Arabia | SAUDI ARABIA | Kingdom Saudi Arabia | Kingdom Saudi Arabia :,,
421,IGO,IGO_421,IGO,IGO,European Community,,EC,EC,,,,,,,,,,,,,European Economic Community || European Community | European Community Monitoring Mission | ECMM | E.C.M.M | Mission of the European Community  | European Community | EUROPEAAN COMMUNITY MONITOR MISSION,"The European Community (EC) was an economic association formed by six European member countries in 1957, consisting of three communities that eventually were replaced by the European Union (EU) in 1993. ",
435,IGO,IGO_435,IGO,IGO,European Commission,,EU Commission,EU Commission,,,,,,,,,,,,,European Commission | European Commission | EUROPEAN COMMISSION | EU Commission | European Commission | Commission European Union | European Union  Delegation European Commission | Delegation of the European Commission,"European Commission (EC) is an IGO, with affiliations to European Union. It functions as the executive of the European Union. They are also referred to as European Commission || the Commission",
436,IGO,IGO_436,IGO,IGO,International Monetary Fund,,IMF,IMF,,,,,,,,,,,,,International Monetary Fund || IMF | Intl Monetary Fund | International Monetary Fund | Red Crescent Societies  International Fund Agricultural Development  International Labor Organization  International Monetary Fund  International Organization Migration  Multilateral Investment Guarantee Agency,"International Monetary Fund (IMF) is an IGO, with affiliations to Global Economic/Financial/Trade IGOs (International Government Organizations). They are also referred to as International Monetary Fund || IMF",
438,IGO,IGO_438,IGO,IGO,World Bank,,WB,WB,,,,,,,,,,,,,World Bank | World Bank | World Bank Group | WB | World Bank | IBRD | World Bank | International Bank for Reconstruction and Development (World Bank),"World Bank (WB) is an IGO, with affiliations to Development. They are also referred to as World Bank",
440,CON,CON_440,Country/State,Country/State,Belgium,,BEL,BEL,Belgium,BEL,56.0,211.0,BEL,BEL,211.0,Europe,31.0,Government of Belgium,Government of Belgium (2019-2020),Government of Belgium (2019-2020),Belgium | BELGIUM | Belgium | BELGIUM | Belgium United States America | Kingdom Belgium | Kingdom of Belgium ,,
450,ARM,ARM_450,Armed Organization,Armed Group,Armed Forces of the Chechen Republic of Ichkeria,,,Armed Forces of the Chechen Republic of Ichkeria,Russian Federation,RUS,643.0,365.0,RUS,RUS,365.0,Europe,,,,,Armed Forces CRI | Armed Forces of the CRI,,
451,NGO,NGO_451,NGO,NGO,Aga Khan Foundation,,,Aga Khan Foundation,,,,,,,,,,,,,,,
456,CON,CON_456,Country/State,Country/State,South Korea,,ROK,ROK,"Korea, Republic of",KOR,410.0,732.0,ROK,ROK,732.0,Asia,139.0,Government of South Korea,Government of South Korea (2017-2022),Government of South Korea (2017-2022),"Korea, Republic of | KOREA, REPUBLIC OF | Korea | Republic Korea",,
457,IGO,IGO_457,IGO,IGO,United Nations,United Nations Children's Fund,UNICEF,UNICEF,,,,,,,,,,,,,UNICEF || United Nations Children'S Fund || U.N. Children Fund || United Nations Children Fund || U.N. Children'S Fund || Un Children'S Fund | UNICEF | UNICEF Philippines | UNICEF  |  United Nations Children'S Fund  |  U.N. Children Fund  |  United Nations Children Fund  |  U.N. Children'S Fund  |  Un Children'S Fund,"United Nations Children's Fund (UNICEF) is an IGO, with affiliations to Global Human Rights IGOs (United Nations). They are also referred to as UNICEF || United Nations Children'S Fund || U.N. Children Fund || United Nations Children Fund || U.N. Children'S Fund || Un Children'S Fund",
477,IGO,IGO_477,IGO,IGO,UN Mission,UNOMIG,UNOMIG,UNOMIG,,,,,,,,,,,,,United Nations Observer Mission in Georgia,,
478,CON,CON_478,Country/State,Country/State,Madagascar,,MAG,MAG,Madagascar,MDG,450.0,580.0,MAG,MAG,580.0,Africa,106.0,Government of Madagascar,Government of Madagascar (2014-2019),Government of Madagascar (2014-2019),Madagascar (Malagasy) | MADAGASCAR | Madagascar | Madagascar Page 1 | Madagascar Pour l'Organisation Internationale de la Francophonie Edem Kodjo Pour | Madagascar Republic - ABDULKADER | Republic Madagascar,,
479,CON,CON_479,Country/State,Country/State,Mauritius,,MAS,MAS,Mauritius,MUS,480.0,590.0,MAS,MAS,590.0,Africa,,,,,Mauritius | MAURITIUS | Mauritius,,
483,CON,CON_483,Country/State,Country/State,Qatar,,QAT,QAT,Qatar,QAT,634.0,694.0,QAT,QAT,694.0,Asia,127.0,Government of Qatar,Government of Qatar (2013-),Government of Qatar (2013-),Qatar | QATAR,,
509,ENT,ENT_509,Entity,Entity,South Ossetia,,,South Ossetia,,,,,,,,,,,,,,,
553,CON,CON_553,Country/State,Country/State,Kuwait,,KUW,KUW,Kuwait,KWT,414.0,690.0,KUW,KUW,690.0,Asia,125.0,Government of Kuwait,Government of Kuwait (2020-),Government of Kuwait (2006-2020) | Government of Kuwait (2020-),Kuwait | KUWAIT,,
554,CON,CON_554,Country/State,Country/State,Turkey,,TUR,TUR,Turkey,TUR,792.0,640.0,TUR,TUR,640.0,Asia,115.0,Government of Turkey,Government of Turkey (2016-),Government of Turkey (2002-2016) | Government of Turkey (2016-),Turkey (Ottoman Empire) | TURKEY | Republic Turkey | Republic of Turkey | Turke | Turkey,,
564,ARM,ARM_564,Armed Organization,Armed Group,Popular Front for the Renaissance of Central Africa,,FPRC,FPRC,Central African Republic,CAF,140.0,482.0,CEN,CEN,482.0,Africa,4007.0,FPRC,FPRC: Popular Front for the Renaissance of Central Africa,FPRC: Popular Front for the Renaissance of Central Africa (Hissene Faction),Front populaire pour la renaissance de centrafrique | ex-Seleka,,
568,ARM,ARM_568,Armed Organization,Armed Group,anti-Balaka,,,anti-Balaka,Central African Republic,CAF,140.0,482.0,CEN,CEN,482.0,Africa,4201.0,anti-Balaka,,,"AK Anti-Bullet Resistance Faction of the Ndénga Commune (Bangui axis), Sub-Prefecture
of Kaga-Bandoro",,
577,IGO,IGO_577,IGO,IGO,Shanghai Cooperation Organization,,SCO,SCO,,,,,,,,,,,,,Shanghai Cooperation Organization || SCO || Shanghai Cooperation Organisation |  SCO  |  Shanghai Cooperation Organisation,"The Shanghai Cooperation Organization (SCO) is an IGO, with affiliations to Regional Defense / Security IGOs (International Government Organizations). It is also referred to as Shanghai Cooperation Organization || SCO || Shanghai Cooperation Organisation",
578,CON,CON_578,Country/State,Country/State,Sweden,,SWD,SWD,Sweden,SWE,752.0,380.0,SWD,SWD,380.0,Europe,66.0,Government of Sweden,Government of Sweden (2019-),Government of Sweden (2019-),Sweden | SWEDEN | Kingdom Sweden | SWEDEN | Sweden,,
579,CON,CON_579,Country/State,Country/State,Slovakia,,SLO,SLO,Slovakia,SVK,703.0,317.0,SLO,SLO,317.0,Europe,43.0,Government of Slovakia,Government of Slovakia (2020-),Government of Slovakia (2012-2020) | Government of Slovakia (2020-),Slovakia | SLOVAKIA | Slovak Republic | Slovakia,,
580,CON,CON_580,Country/State,Country/State,Poland,,POL,POL,Poland,POL,616.0,290.0,POL,POL,290.0,Europe,38.0,Government of Poland,Government of Poland (2015-),Government of Poland (2015-),Poland | POLAND | POL | Poland | Republic Poland | Republic of Poland ,,
581,CON,CON_581,Country/State,Country/State,Oman,,OMA,OMA,Oman,OMN,512.0,698.0,OMA,OMA,698.0,Asia,129.0,Government of Oman,Government of Oman (2020-),Government of Oman (1970-2020) | Government of Oman (2020-),Oman | OMAN,,
582,CON,CON_582,Country/State,Country/State,Tunisia,,TUN,TUN,Tunisia,TUN,788.0,616.0,TUN,TUN,616.0,Africa,110.0,Government of Tunisia,Government of Tunisia (2019-),Government of Tunisia (2011-2014) | Government of Tunisia (2014-2019) | Government of Tunisia (2019-),Tunisia | TUNISIA | Republic Tunisia,,
583,IGO,IGO_583,IGO,IGO,Islamic Development Bank,,ISDB,ISDB,,,,,,,,,,,,,Islamic Development Bank || ISDB | Islamic Development Bank | Islamic Development Bank (IsDB),"Islamic Development Bank (ISDB) is an IGO, with affiliations to Global Development IGOs (International Government Organizations). They are also referred to as Islamic Development Bank || ISDB",
584,IGO,IGO_584,IGO,IGO,Economic Cooperation Organization,,ECO,ECO,,,,,,,,,,,,,Economic Cooperation Organization || Economic Cooperation Organisation |  Economic Cooperation Organisation | Economic Cooperation Organization | Economic Cooperation Organization (ECO),"Economic Cooperation Organization (ECO) is an IGO, with affiliations to Regional Economic/Financial/Trade IGOs (International Government Organizations). They are also referred to as Economic Cooperation Organization || Economic Cooperation Organisation",
585,IGO,IGO_585,IGO,IGO,Collective Security Treaty Organization,,CSTO,CSTO,,,,,,,,,,,,,Collective Security Treaty Organization || Collective Security Treaty Organisation |  Collective Security Treaty Organisation,"The Collective Security Treaty Organization (CSTO) is an IGO/military alliance consisting of six post-Soviet states: Armenia, Belarus, Kazakhstan, Kyrgyzstan, Russia and Tajikistan. It is also referred to as Collective Security Treaty Organization || Collective Security Treaty Organisation",
586,IGO,IGO_586,IGO,IGO,Conference on Interaction and Confidence-Building Measures in Asia (CICA),,CICA,CICA,,,,,,,,,,,,, | Conference on Interaction and Confidence-Building Measures in Asia | Conference on Interaction and Confidence-Building Measures in Asia (CICA),"The Conference on Interaction and Confidence-Building Measures in Asia (CICA) is an IGO. It aims to enhance cooperation towards promoting peace, security and stability in Asia. It has 28 member states",
587,IGO,IGO_587,IGO,IGO,Asian Development Bank,,ADB,ADB,,,,,,,,,,,,,ADB || Asian Development Bank | ,"Asian Development Bank (ADB) is an IGO, with affiliations to Regional Development IGOs (International Government Organizations). They are also referred to as ADB || Asian Development Bank",
588,CON,CON_588,Country/State,Country/State,Montenegro,,MNG,MNG,Montenegro,MNE,499.0,341.0,MNG,MNG,341.0,Europe,46.0,Government of Montenegro,Government of Montenegro (2022-),Government of Montenegro (2022-),Montenegro | MONTENEGRO | Montenegro,,
589,CON,CON_589,Country/State,Country/State,Uruguay,,URU,URU,Uruguay,URY,858.0,165.0,URU,URU,165.0,Americas,27.0,Government of Uruguay,Government of Uruguay (2020-),Government of Uruguay (2020-),Uruguay | URUGUAY | Oriental Republic Uruguay,,
590,CON,CON_590,Country/State,Country/State,United Arab Emirates,,UAE,UAE,United Arab Emirates,ARE,784.0,696.0,UAE,UAE,696.0,Asia,128.0,Government of United Arab Emirates,Government of the United Arab Emirates (2004-),Government of the United Arab Emirates (2004-),United Arab Emirates | UNITED ARAB EMIRATES | United Arab Emirates | UAE,,
591,CON,CON_591,Country/State,Country/State,Mongolia,,MON,MON,Mongolia,MNG,496.0,712.0,MON,MON,712.0,Asia,136.0,Government of Mongolia,Government of Mongolia (2016-),Government of Mongolia (2016-),Mongolia | MONGOLIA | Mongolia | People Republic Mongolia,,
592,CON,CON_592,Country/State,Country/State,Malta,,MLT,MLT,Malta,MLT,470.0,338.0,MLT,MLT,338.0,Europe,,,Government of Malta (2013-),Government of Malta (2013-),Malta | MALTA | Malta | Maltese Cross | Republic Malta,,
593,CON,CON_593,Country/State,Country/State,Denmark,,DEN,DEN,Denmark,DNK,208.0,390.0,DEN,DEN,390.0,Europe,68.0,Government of Denmark,Government of Denmark (2019-),Government of Denmark (2019-),Denmark | DENMARK | Denmark | DENMARK | Kingdom Denmark,,
594,CON,CON_594,Country/State,Country/State,Cyprus,,CYP,CYP,Cyprus,CYP,196.0,352.0,CYP,CYP,352.0,Asia,53.0,Government of Cyprus,Government of Cyprus (2013-),Government of Cyprus (2013-),Cyprus | CYPRUS | Cyprus,,
595,CON,CON_595,Country/State,Country/State,Bulgaria,,BUL,BUL,Bulgaria,BGR,100.0,355.0,BUL,BUL,355.0,Europe,54.0,Government of Bulgaria,Government of Bulgaria (2017-),Government of Bulgaria (2017-),Bulgaria | BULGARIA | Bulgaria | Republic Bulgaria,,
596,CON,CON_596,Country/State,Country/State,Austria,,AUS,AUS,Austria,AUT,40.0,305.0,AUS,AUS,305.0,Europe,39.0,Government of Austria,Government of Austria (2019-),Government of Austria (2019-),Austria | AUSTRIA | Republic Austria | Austria | AUSTRIA | Republic of Austria,,
597,CON,CON_597,Country/State,Country/State,Albania,,ALB,ALB,Albania,ALB,8.0,339.0,ALB,ALB,339.0,Europe,45.0,Government of Albania,Government of Albania (2013-),Government of Albania (2013-),Albania | ALBANIA | Republic Albania | Republic Albania,,
598,CON,CON_598,Country/State,Country/State,Estonia,,EST,EST,Estonia,EST,233.0,366.0,EST,EST,366.0,Europe,58.0,Government of Estonia,Government of Estonia (2021-),Government of Estonia (2021-),Estonia | ESTONIA | Estonia | Republic Estonia,,
599,CON,CON_599,Country/State,Country/State,North Macedonia,,MAC,MAC,North Macedonia,MKD,807.0,343.0,MAC,MAC,343.0,Europe,47.0,Government of North Macedonia,Government of North Macedonia (2017-),Government of North Macedonia (2017-),"Macedonia (Former Yugoslav Republic of) | MACEDONIA, THE FORMER YUGOSLAV REPUBLIC OF | Macedonia | Republic Macedonia | Macedonia | FYROM ",,
600,CON,CON_600,Country/State,Country/State,Luxembourg,,LUX,LUX,Luxembourg,LUX,442.0,212.0,LUX,LUX,212.0,Europe,32.0,Government of Luxembourg,Government of Luxembourg (2013-),Government of Luxembourg (2013-),Luxembourg | LUXEMBOURG | Luxembourg,,
601,CON,CON_601,Country/State,Country/State,Lithuania,,LIT,LIT,Lithuania,LTU,440.0,368.0,LIT,LIT,368.0,Europe,60.0,Government of Lithuania,Government of Lithuania (2020-),Government of Lithuania (2020-),Lithuania | LITHUANIA | Lithuania | Republic Lithuania,,
602,CON,CON_602,Country/State,Country/State,Liechtenstein,,,Liechtenstein,Liechtenstein,LIE,438.0,,,LIE,223.0,Europe,,,,,Liechtenstein | LIECHTENSTEIN,,
603,CON,CON_603,Country/State,Country/State,Latvia,,LAT,LAT,Latvia,LVA,428.0,367.0,LAT,LAT,367.0,Europe,59.0,Government of Latvia,Government of Latvia (2019-),Government of Latvia (2019-),Latvia | LATVIA | Republic Latvia | Latvia,,
604,CON,CON_604,Country/State,Country/State,Iceland,,ICE,ICE,Iceland,ISL,352.0,395.0,ICE,ICE,395.0,Europe,69.0,Government of Iceland,Government of Iceland (2017-),Government of Iceland (2017-),Iceland | ICELAND | Iceland | Republic Iceland,,
605,CON,CON_605,Country/State,Country/State,Hungary,,HUN,HUN,Hungary,HUN,348.0,310.0,HUN,HUN,310.0,Europe,40.0,Government of Hungary,Government of Hungary (2010-),Government of Hungary (2010-),Hungary | HUNGARY | Hungary | Republic Hungary,,
606,NGO,NGO_606,NGO,NGO,Aga Khan Development Network,,,Aga Khan Development Network,,,,,,,,,,,,,,,
612,CON,CON_612,Country/State,Country/State,Honduras,,HON,HON,Honduras,HND,340.0,91.0,HON,HON,91.0,Americas,12.0,Government of Honduras,Government of Honduras (2022-),Government of Honduras (2010-2022) | Government of Honduras (2022-),Honduras | HONDURAS | Honduras | Republic Honduras,,
624,MIL,MIL_624,Military,Military,Armed Forces of Angola,,,Armed Forces of Angola,Angola,AGO,24.0,540.0,ANG,ANG,540.0,Africa,,,Military Forces of Angola (1975-),,,,
626,ENT,ENT_626,Entity,Entity,North Ossetia,,,North Ossetia,Russian Federation,RUS,643.0,365.0,RUS,RUS,365.0,,,,,,,,
627,ENT,ENT_627,Entity,Entity,South Ossetia,,,South Ossetia,Russian Federation,RUS,643.0,365.0,RUS,RUS,365.0,,,,,,,,
628,IGO,IGO_628,IGO,IGO,United Nations,Office of the United Nations High Commissioner for Human Rights,UNHCHR,UNHCHR,,,,,,,,,,,,,Office Of The United Nations High Commissioner For Human Rights || OHCHR || High Commissioner For Human Rights | Office of the United Nations High Commissioner for Human Rights | UNHCHR | Office Of The United Nations High Commissioner For Human Rights  |  OHCHR  |  High Commissioner For Human Rights,"Office of the United Nations High Commissioner for Human Rights (UNHCHR) is an IGO, with affiliations to Global Human Rights IGOs (United Nations Human Rights Council). They are also referred to as Office Of The United Nations High Commissioner For Human Rights || OHCHR || High Commissioner For Human Rights",
629,IGO,IGO_629,IGO,IGO,Council of Europe,,COE,COE,,,,,,,,,,,,,Council Of Europe | Council of Europe | Council of Europe,"Council of Europe (COE) is an IGO, with affiliations to Regional Diplomatic IGOs (International Government Organizations). They are also referred to as Council Of Europe",
630,IGO,IGO_630,IGO,IGO,European Bank for Reconstruction and Development,,EBRD,EBRD,,,,,,,,,,,,,European Bank For Reconstruction And Development || EBRD | European Bank for Reconstruction & Development | European Bank for Reconstruction and Development (EBRD),"European Bank for Reconstruction and Development (EBRD) is an IGO, with affiliations to Regional Development IGOs (International Government Organizations). They are also referred to as European Bank For Reconstruction And Development || EBRD",
631,CON,CON_631,Country/State,Country/State,Czechia,,CZR,CZR,Czechia,CZE,203.0,316.0,CZR,CZR,316.0,Europe,42.0,Government of Czech Republic,Government of the Czech Republic (2021-),Government of the Czech Republic (2018-2021) | Government of the Czech Republic (2021-),Czech Republic | CZECH REPUBLIC | Czech Republic,,
632,CON,CON_632,Country/State,Country/State,Greece,,GRC,GRC,Greece,GRC,300.0,350.0,GRC,GRC,350.0,Europe,52.0,Government of Greece,Government of Greece (2019-),Government of Greece (2015-2019) | Government of Greece (2019-),Greece | GREECE | Greece,,
633,CON,CON_633,Country/State,Country/State,Seychelles,,,Seychelles,Seychelles,SYC,690.0,,,SEY,591.0,Africa,,,Government of Seychelles (2020-),Government of Seychelles (2016-2020) | Government of Seychelles (2020-),Seychelles | SEYCHELLES,,
661,CON,CON_661,Country/State,Country/State,Vatican City,,PAP,PAP,Holy See,VAT,336.0,327.0,PAP,PAP,327.0,Europe,,,Government of Vatican City (2013-),Government of Vatican City (2013-),Papal States | HOLY SEE (VATICAN CITY STATE) | VATICAN CITY,,
663,IGO,IGO_663,IGO,IGO,Asian Productivity Organization,,APO,APO,,,,,,,,,,,,,Asian Productivity Organisation | Asian Productivity Organization | Asian Productivity Organisation,"The Asian Productivity Organization (APO) is an IGO, consisting of a union of 21 Asian countries that join forces to promote socio-economic development in the region and among members. It is also referred to as Asian Productivity Organisation",
664,IGO,IGO_664,IGO,IGO,International Fund for Agricultural Development (IFAD),,IFAD,IFAD,,,,,,,,,,,,, | Int Fund for Agriculture & Development | International Fund for Agricultural Development (IFAD),The International Fund for Agricultural Development (IFAD) is an international financial institution and a specialised agency of the United Nations that works to address poverty and hunger in rural areas of developing countries. It is also referred to as Int Fund for Agriculture & Development || International Fund for Agricultural Development (IFAD),
665,IGO,IGO_665,IGO,IGO,Multilateral Investment Guarantee Agency (MIGA),,MIGA,MIGA,,,,,,,,,,,,, | Multilateral Investment Guarantee Agency | Multilateral Investment Guarantee Agency (MIGA),The Multilateral Investment Guarantee Agency (MIGA) is an IGO/international financial institution. It is part of the World Bank Group. It is also referred to as MIGA,
666,IGO,IGO_666,IGO,IGO,United Nations,World Health Organization,WHO,WHO,,,,,,,,,,,,,WHO || World Health Organization || World Health Organisation |  World Health Organization  |  World Health Organisation | World Health Org | World Health Organization,"World Health Organization (WHO) is an IGO, with affiliations to Global Health IGOs (United Nations). They are also referred to as WHO || World Health Organization || World Health Organisation",
667,IGO,IGO_667,IGO,IGO,United Nations,Food and Agriculture Organization,FAO,FAO,,,,,,,,,,,,,Food And Agriculture Organisation || Organisation Des Nations Unies Pour L’Alimentation Et L’Agriculture || Food And Agriculture Organization || ONUAA || FAO |  Organisation Des Nations Unies Pour Lâ€™Alimentation Et Lâ€™Agriculture  |  Food And Agriculture Organization  |  ONUAA  |  FAO | Food & Ag Org,"Food and Agriculture Organization (FAO) is an IGO, with affiliations to Global Agricultural IGOs (United Nations). They are also referred to as Food And Agriculture Organisation || Organisation Des Nations Unies Pour L’Alimentation Et L’Agriculture || Food And Agriculture Organization || ONUAA || FAO",
668,IGO,IGO_668,IGO,IGO,United Nations,International Organization for Migration,IOM,IOM,,,,,,,,,,,,,International Organisation For Migration || Organización Internacional Para Las Migraciones || IOM || International Organization For Migration || Organisation Internationale Pour Les Migrations |  OrganizaciÃ³n Internacional Para Las Migraciones  |  International Organization For Migration  |  Organisation Internationale Pour Les Migrations,"International Organization for Migration (IOM) is an IGO, with affiliations to Global Human Rights IGOs (International Government Organizations). They are also referred to as International Organisation For Migration || Organización Internacional Para Las Migraciones || IOM || International Organization For Migration || Organisation Internationale Pour Les Migrations",
669,IGO,IGO_669,IGO,IGO,United Nations,United Nations Population Fund,UNFPA,UNFPA,,,,,,,,,,,,,United Nations Population Fund | ,"United Nations Population Fund (UNFPA) is an IGO, with affiliations to Development. They are also referred to as United Nations Population Fund",
670,IGO,IGO_670,IGO,IGO,United Nations,World Food Program,WFP,WFP,,,,,,,,,,,,,World Food Program || WFP || World Food Programme | World Food Programme | WFP | World Food Program | World Food Program  |  WFP  |  World Food Programme,"World Food Program (WFP) is an IGO, with affiliations to Global Development IGOs (United Nations). They are also referred to as World Food Program || WFP || World Food Programme",
671,IGO,IGO_671,IGO,IGO,United Nations,UN Office on Drugs and Crimes,UNODC,UNODC,,,,,,,,,,,,, | UN Office Drugs Crimes ( UNODC | UN Office on Drugs and Crimes | United Nations Office on Drugs and Crime,"The UN Office on Drugs and Crimes (UNODC) is an office of the United Nations, which focus is on trafficking and abuse of illicit drugs, crime prevention, criminal justice, international terrorism and political corruption. It is a member of the United Nations Development Group.",
672,OTH,OTH_672,Other,Other,Central Bank of Sri Lanka,,,Central Bank of Sri Lanka,Sri Lanka,LKA,144.0,780.0,SRI,SRI,780.0,Asia,,,,,,,
673,IGO,IGO_673,IGO,IGO,United Nations,"United Nations Educational, Scientific and Cultural Organization",UNESCO,UNESCO,,,,,,,,,,,,,"UNESCO || United Nations Educational, Scientific And Cultural Organization || United Nations Educational, Scientific And Cultural Organisation |  United Nations Educational, Scientific And Cultural Organization  |  United Nations Educational, Scientific And Cultural Organisation | UN Education, Scientific, & Cultural Org | United Nations Educational, Scientific, and Cultural Organization (UNESCO)","United Nations Educational, Scientific and Cultural Organization (UNESCO) is an IGO, with affiliations to Global Information / Communication / Transparency IGOs (United Nations). They are also referred to as UNESCO || United Nations Educational, Scientific And Cultural Organization || United Nations Educational, Scientific And Cultural Organisation",
674,ENT,ENT_674,Entity,Entity,Czechoslovakia,,,Czechoslovakia,,CSK,,,,,,,,,,,,,
679,ARM,ARM_679,Armed Organization,Armed Group,Republic of Serb Krajina,,,Republic of Serb Krajina,Bosnia and Herzegovina,BIH,70.0,346.0,BOS,BOS,346.0,Europe,340.0,Serbian Republic of Krajina,,,,,
680,COA,COA_680,State Coalition,State Coalition,Group of Eight,,G8,G8,,,,,,,,,,,,,,"The Group of 8 (G8) was an state coalition. Its members included: United Kingdom | United States | France | Germany | Italy | Japan | Russia. Russia left in 2014, resulting in the remaining members to be the Group of Seven (G7).",
707,ENT,ENT_707,Entity,Entity,Donetsk People Republic,,,Donetsk People Republic,Ukraine,UKR,804.0,369.0,UKR,UKR,369.0,,,,,,,,
708,ENT,ENT_708,Entity,Entity,Luhansk People Republic,,,Luhansk People Republic,Ukraine,UKR,804.0,369.0,UKR,UKR,369.0,,,,,,,,
760,ARM,ARM_760,Armed Organization,Armed Group,Islam Army (Jaysh Al-Islam),,,Islam Army (Jaysh Al-Islam),Syrian Arab Republic,SYR,760.0,652.0,SYR,SYR,652.0,Asia,6377.0,Jaysh al-Islam,Jaysh al Islam,,,,
836,ARM,ARM_836,Armed Organization,Armed Group,Patriotic Movement for the Central African Republic ,,MPC,MPC,Central African Republic,CAF,140.0,482.0,CEN,CEN,482.0,Africa,6354.0,MPC,MPC: Patriotic Movement for Central African Republic,,Mouvement patriotique de Centrafrique,,
837,ARM,ARM_837,Armed Organization,Armed Group,Union for Peace in the Central African Republic,,UPC,UPC,Central African Republic,CAF,140.0,482.0,CEN,CEN,482.0,Africa,5999.0,UPC (Ali Darass Fulani supporters),UPC: Union for Peace in the Central African Republic,,,,
851,ENT,ENT_851,Entity,Entity,Transdniestria,,,Transdniestria,"Moldova, Republic of",MDA,498.0,359.0,MLD,MLD,359.0,,,,,,,,
860,ARM,ARM_860,Armed Organization,Armed Group,Syrian Armed Opposition,,,Syrian Armed Opposition,Syrian Arab Republic,SYR,760.0,652.0,SYR,SYR,652.0,Asia,,,,,,,
861,ARM,ARM_861,Armed Organization,Armed Group,Jaysh al-Ababil,,,Jaysh al-Ababil,Syrian Arab Republic,SYR,760.0,652.0,SYR,SYR,652.0,Asia,,,,,The Army of al-Ababil,,
862,ARM,ARM_862,Armed Organization,Armed Group,Aknaf Bayt al-Muqadis,,,Aknaf Bayt al-Muqadis,Syrian Arab Republic,SYR,760.0,652.0,SYR,SYR,652.0,Asia,,,,,Protector of the Holy House,,
876,OTH,OTH_876,Other,Other,Congress of Syrian National Dialogue,,,Congress of Syrian National Dialogue,Syrian Arab Republic,SYR,760.0,652.0,SYR,SYR,652.0,Asia,,,,,,,
877,UMB,UMB_877,Umbrella,Umbrella,CADLR,,CADLR,CADLR,Ukraine,UKR,804.0,369.0,UKR,UKR,369.0,Europe,,,,,Certain Areas of Donetsk and Luhansk Regions | Representatives of certain areas of Donetsk and Luhansk,,
935,COA,COA_935,State Coalition,State Coalition,Group of Five for the Sahel,,G5 Sahel,G5 Sahel,,,,,,,,,,,,,,"The Group of Five for the Sahel is a state coalition consisting of the following members: Burkina Faso | Chad | Mali | Mauritania | Niger. More can be found on this here: https://www.interpol.int/en/Crimes/Terrorism/Counter-terrorism-projects/G5-Sahel#:~:text=The%20Group%20of%20Five%20for,%2C%20Mali%2C%20Mauritania%20and%20Niger. ","https://www.interpol.int/en/Crimes/Terrorism/Counter-terrorism-projects/G5-Sahel#:~:text=The%20Group%20of%20Five%20for,%2C%20Mali%2C%20Mauritania%20and%20Niger."
